BEIJING 1               
1 28890U 05043A   23270.34628716  .00000827  00000+0  17433-3 0  9997
2 28890  98.1712  30.7091 0015722 148.3726 211.8423 14.61924544955342
HJ-1A                   
1 33320U 08041A   23270.49351392  .00001518  00000+0  21289-3 0  9993
2 33320  97.6426 285.7052 0021534 147.8236 212.4295 14.78677342811387
HJ-1B                   
1 33321U 08041B   23270.51488461  .00001705  00000+0  23322-3 0  9993
2 33321  97.6428 290.1479 0038595 194.8612 165.1469 14.79280365811381
YAOGAN 4                
1 33446U 08061A   23270.41041974  .00002700  00000+0  37457-3 0  9996
2 33446  97.8547 202.8766 0017281  63.9478 296.3510 14.78647408798569
DEIMOS-1                
1 35681U 09041A   23270.42369771  .00001063  00000+0  17385-3 0  9996
2 35681  97.6815 101.6274 0002352 123.2131 236.9303 14.72694992760481
UK-DMC 2                
1 35683U 09041C   23270.40407568  .00001819  00000+0  29454-3 0  9992
2 35683  97.7465  64.6888 0001251 103.7829 256.3519 14.72393031760180
RISAT 1                 
1 38248U 12017A   23270.29413236  .00011198  00000+0  55643-3 0  9995
2 38248  97.5411 282.8279 0005647  88.3482 271.8399 15.17813294629497
DMC3-FM1                
1 40715U 15032A   23270.40360392  .00001371  00000+0  17526-3 0  9994
2 40715  97.7829 151.5879 0007401  77.9887 282.2156 14.82941375442476
DMC3-FM2                
1 40716U 15032B   23270.35793356  .00001358  00000+0  17373-3 0  9994
2 40716  97.7878 152.4476 0009301  80.5651 279.6614 14.82906354442460
DMC3-FM3                
1 40717U 15032C   23270.38173467  .00001372  00000+0  17524-3 0  9997
2 40717  97.7920 153.5975 0010813  78.4216 281.8212 14.82957343442472
